{"spkid": "50827445", "covariance": {"epoch": "2459202.5", "labels": ["e", "q", "tp", "node", "peri", "i"], "data": [["4.295491313088473E-13", "-6.062993438308526E-13", "-1.937967417714619E-12", "1.815851948511491E-12", "-5.674612037783013E-11", "-7.096785709083676E-12"], ["-6.062993438308526E-13", "8.558300195803054E-13", "2.505942538872141E-12", "-2.547961639545767E-12", "7.994351131997374E-11", "1.00868806450538E-11"], ["-1.937967417714619E-12", "2.505942538872141E-12", "1.197747211194887E-9", "-7.942461048786339E-11", "1.049481429709281E-9", "-2.50177692450006E-10"], ["1.815851948511491E-12", "-2.547961639545767E-12", "-7.942461048786339E-11", "1.065435909238035E-10", "-3.664712055860466E-10", "-1.291387180458622E-10"], ["-5.674612037783013E-11", "7.994351131997374E-11", "1.049481429709281E-9", "-3.664712055860466E-10", "8.106581430278571E-9", "8.335003183201481E-10"], ["-7.096785709083676E-12", "1.00868806450538E-11", "-2.50177692450006E-10", "-1.291387180458622E-10", "8.335003183201481E-10", "7.108719361416691E-10"]], "elements": [{"value": ".4502385391904339", "title": "eccentricity", "units": null, "name": "e", "sigma": 6.55399978111723e-07, "label": "e"}, {"label": "q", "name": "q", "sigma": 9.2511081475697e-07, "units": "au", "title": "perihelion distance", "value": ".7791449302077463"}, {"value": "2458899.645032845850", "title": "time of perihelion passage", "units": "TDB", "sigma": 3.46084846705961e-05, "name": "tp", "label": "tp"}, {"label": "node", "name": "om", "sigma": 1.03219954913671e-05, "units": "deg", "title": "longitude of the ascending node", "value": "179.5999744140638"}, {"name": "w", "sigma": 9.00365560773988e-05, "title": "argument of perihelion", "value": "70.98851780336925", "units": "deg", "label": "peri"}, {"name": "i", "sigma": 2.66621817588447e-05, "title": "inclination", "value": "26.49770709095412", "units": "deg", "label": "i"}]}, "elements": [{"label": "e", "name": "e", "sigma": "6.5584E-7", "title": "eccentricity", "value": ".4503338971416951", "units": null}, {"name": "a", "sigma": "1.4901E-8", "value": "1.417529664275965", "title": "semi-major axis", "units": "au", "label": "a"}, {"label": "q", "value": ".779168006248611", "title": "perihelion distance", "units": "au", "name": "q", "sigma": "9.2557E-7"}, {"label": "i", "name": "i", "sigma": "2.6671E-5", "units": "deg", "value": "26.49198291114312", "title": "inclination; angle with respect to x-y ecliptic plane"}, {"name": "om", "sigma": "1.0292E-5", "value": "179.5420141053628", "title": "longitude of the ascending node", "units": "deg", "label": "node"}, {"value": "71.04522632566874", "title": "argument of perihelion", "units": "deg", "sigma": "8.9972E-5", "name": "w", "label": "peri"}, {"label": "M", "name": "ma", "sigma": "1.1542E-5", "title": "mean anomaly", "value": "263.9549026598862", "units": "deg"}, {"label": "tp", "units": "TDB", "value": "2461364.963436681276", "title": "time of perihelion passage", "name": "tp", "sigma": "2.0857E-5"}, {"label": "period", "value": "616.4483023594303", "title": "sidereal orbital period", "units": "d", "sigma": "9.7204E-6", "name": "per"}, {"value": ".5839905773478732", "title": "mean motion", "units": "deg/d", "sigma": "9.2086E-9", "name": "n", "label": "n"}, {"title": "aphelion distance", "value": "2.05589132230332", "units": "au", "name": "ad", "sigma": "2.1612E-8", "label": "Q"}], "epoch": "2461200.5"}